{"type": "FeatureCollection", "features": [ {"type": "Feature", "properties": {"norad_id": 30173, "name": "FENGYUN 1C DEB", "group": "fengyun-1c-debris", "lat": 44.30252085048548, "lon": 44.86809229164996, "alt_km": 866.1321173770339, "timestamp": "2025-12-08T23:34:04.243880+00:00", "meta": {"OBJECT_NAME": "FENGYUN 1C DEB", "OBJECT_ID": "1999-025UE", "EPOCH": "2025-12-07T15:47:07.604160", "MEAN_MOTION": 14.11344667, "ECCENTRICITY": 0.00800374, "INCLINATION": 98.9762, "RA_OF_ASC_NODE": 52.4179, "ARG_OF_PERICENTER": 303.1281, "MEAN_ANOMALY": 216.378, "EPHEMERIS_TYPE": 0, "CLASSIFICATION_TYPE": "U", "NORAD_CAT_ID": 30173, "ELEMENT_SET_NO": 999, "REV_AT_EPOCH": 96477, "BSTAR": 0.0025634542, "MEAN_MOTION_DOT": 4.734e-05, "MEAN_MOTION_DDOT": 0}, "tle": {"line1": "1 30173U 99025UE  25341.65772690  .00004734  00000+0  25635-2 0  9996", "line2": "2 30173  98.9762  52.4179 0080037 303.1281 216.3780 14.11344667964778"}}, "geometry": {"type": "Point", "coordinates": [44.86809229164996, 44.30252085048548]}}, {"type": "Feature", "properties": {"norad_id": 30174, "name": "FENGYUN 1C DEB", "group": "fengyun-1c-debris", "lat": -16.34906564211663, "lon": -51.136415885059854, "alt_km": 641.285116301925, "timestamp": "2025-12-08T23:34:04.243890+00:00", "meta": {"OBJECT_NAME": "FENGYUN 1C DEB", "OBJECT_ID": "1999-025UF", "EPOCH": "2025-12-08T09:58:24.067776", "MEAN_MOTION": 14.80590162, "ECCENTRICITY": 0.00178178, "INCLINATION": 98.7773, "RA_OF_ASC_NODE": 130.8422, "ARG_OF_PERICENTER": 61.3241, "MEAN_ANOMALY": 357.536, "EPHEMERIS_TYPE": 0, "CLASSIFICATION_TYPE": "U", "NORAD_CAT_ID": 30174, "ELEMENT_SET_NO": 999, "REV_AT_EPOCH": 98304, "BSTAR": 0.0049282448, "MEAN_MOTION_DOT": 0.00038048, "MEAN_MOTION_DDOT": 0}, "tle": {"line1": "1 30174U 99025UF  25342.41555634  .00038048  00000+0  49282-2 0  9998", "line2": "2 30174  98.7773 130.8422 0017817  61.3241 357.5360 14.80590162983048"}}, "geometry": {"type": "Point", "coordinates": [-51.136415885059854, -16.34906564211663]}}, {"type": "Feature", "properties": {"norad_id": 30175, "name": "FENGYUN 1C DEB", "group": "fengyun-1c-debris", "lat": 39.34569671005831, "lon": -133.1512830836972, "alt_km": 932.035580113944, "timestamp": "2025-12-08T23:34:04.243901+00:00", "meta": {"OBJECT_NAME": "FENGYUN 1C DEB", "OBJECT_ID": "1999-025UG", "EPOCH": "2025-12-08T02:22:12.118368", "MEAN_MOTION": 13.83859902, "ECCENTRICITY": 0.01461359, "INCLINATION": 99.3815, "RA_OF_ASC_NODE": 38.1779, "ARG_OF_PERICENTER": 225.0121, "MEAN_ANOMALY": 198.7025, "EPHEMERIS_TYPE": 0, "CLASSIFICATION_TYPE": "U", "NORAD_CAT_ID": 30175, "ELEMENT_SET_NO": 999, "REV_AT_EPOCH": 95276, "BSTAR": 0.00060019321, "MEAN_MOTION_DOT": 6.77e-06, "MEAN_MOTION_DDOT": 0}, "tle": {"line1": "1 30175U 99025UG  25342.09875137  .00000677  00000+0  60019-3 0  9995", "line2": "2 30175  99.3815  38.1779 0146135 225.0121 198.7025 13.83859902952760"}}, "geometry": {"type": "Point", "coordinates": [-133.1512830836972, 39.34569671005831]}}, {"type": "Feature", "properties": {"norad_id": 30177, "name": "FENGYUN 1C DEB", "group": "fengyun-1c-debris", "lat": -52.729417335871204, "lon": 95.53936146857187, "alt_km": 989.7970585963503, "timestamp": "2025-12-08T23:34:04.243912+00:00", "meta": {"OBJECT_NAME": "FENGYUN 1C DEB", "OBJECT_ID": "1999-025UJ", "EPOCH": "2025-12-08T14:29:46.663584", "MEAN_MOTION": 13.62799602, "ECCENTRICITY": 0.04514073, "INCLINATION": 98.626, "RA_OF_ASC_NODE": 286.7091, "ARG_OF_PERICENTER": 149.2789, "MEAN_ANOMALY": 25.6979, "EPHEMERIS_TYPE": 0, "CLASSIFICATION_TYPE": "U", "NORAD_CAT_ID": 30177, "ELEMENT_SET_NO": 999, "REV_AT_EPOCH": 93406, "BSTAR": 0.0010460789, "MEAN_MOTION_DOT": 1.591e-05, "MEAN_MOTION_DDOT": 0}, "tle": {"line1": "1 30177U 99025UJ  25342.60401231  .00001591  00000+0  10461-2 0  9995", "line2": "2 30177  98.6260 286.7091 0451407 149.2789  25.6979 13.62799602934060"}}, "geometry": {"type": "Point", "coordinates": [95.53936146857187, -52.729417335871204]}}, {"type": "Feature", "properties": {"norad_id": 30178, "name": "FENGYUN 1C DEB", "group": "fengyun-1c-debris", "lat": 6.011326581828882, "lon": 36.791221073478084, "alt_km": 876.1626516462557, "timestamp": "2025-12-08T23:34:04.243922+00:00", "meta": {"OBJECT_NAME": "FENGYUN 1C DEB", "OBJECT_ID": "1999-025UK", "EPOCH": "2025-12-08T14:02:56.424192", "MEAN_MOTION": 13.58669114, "ECCENTRICITY": 0.02804349, "INCLINATION": 102.2595, "RA_OF_ASC_NODE": 214.9847, "ARG_OF_PERICENTER": 136.6915, "MEAN_ANOMALY": 256.0591, "EPHEMERIS_TYPE": 0, "CLASSIFICATION_TYPE": "U", "NORAD_CAT_ID": 30178, "ELEMENT_SET_NO": 999, "REV_AT_EPOCH": 93115, "BSTAR": 0.0023004859, "MEAN_MOTION_DOT": 2.112e-05, "MEAN_MOTION_DDOT": 0}, "tle": {"line1": "1 30178U 99025UK  25342.58537528  .00002112  00000+0  23005-2 0  9990", "line2": "2 30178 102.2595 214.9847 0280434 136.6915 256.0591 13.58669114931153"}}, "geometry": {"type": "Point", "coordinates": [36.791221073478084, 6.011326581828882]}}, {"type": "Feature", "properties": {"norad_id": 30181, "name": "FENGYUN 1C DEB", "group": "fengyun-1c-debris", "lat": -81.14401147165395, "lon": 153.85582723175108, "alt_km": 807.0702600927616, "timestamp": "2025-12-08T23:34:04.243932+00:00", "meta": {"OBJECT_NAME": "FENGYUN 1C DEB", "OBJECT_ID": "1999-025UN", "EPOCH": "2025-12-08T12:17:39.703776", "MEAN_MOTION": 14.29195719, "ECCENTRICITY": 0.0040205, "INCLINATION": 98.8435, "RA_OF_ASC_NODE": 65.6587, "ARG_OF_PERICENTER": 12.6197, "MEAN_ANOMALY": 2.7462, "EPHEMERIS_TYPE": 0, "CLASSIFICATION_TYPE": "U", "NORAD_CAT_ID": 30181, "ELEMENT_SET_NO": 999, "REV_AT_EPOCH": 97451, "BSTAR": 0.0021774687, "MEAN_MOTION_DOT": 5.536e-05, "MEAN_MOTION_DDOT": 0}, "tle": {"line1": "1 30181U 99025UN  25342.51226509  .00005536  00000+0  21775-2 0  9996", "line2": "2 30181  98.8435  65.6587 0040205  12.6197   2.7462 14.29195719974511"}}, "geometry": {"type": "Point", "coordinates": [153.85582723175108, -81.14401147165395]}}, {"type": "Feature", "properties": {"norad_id": 30182, "name": "FENGYUN 1C DEB", "group": "fengyun-1c-debris", "lat": -36.13264323339157, "lon": -152.67885219546775, "alt_km": 967.0961438540517, "timestamp": "2025-12-08T23:34:04.243943+00:00", "meta": {"OBJECT_NAME": "FENGYUN 1C DEB", "OBJECT_ID": "1999-025UP", "EPOCH": "2025-12-08T09:03:56.155392", "MEAN_MOTION": 13.96454414, "ECCENTRICITY": 0.00753165, "INCLINATION": 99.0664, "RA_OF_ASC_NODE": 33.4204, "ARG_OF_PERICENTER": 34.6727, "MEAN_ANOMALY": 25.8434, "EPHEMERIS_TYPE": 0, "CLASSIFICATION_TYPE": "U", "NORAD_CAT_ID": 30182, "ELEMENT_SET_NO": 999, "REV_AT_EPOCH": 96247, "BSTAR": 0.00041427641, "MEAN_MOTION_DOT": 5.42e-06, "MEAN_MOTION_DDOT": 0}, "tle": {"line1": "1 30182U 99025UP  25342.37773328  .00000542  00000+0  41428-3 0  9997", "line2": "2 30182  99.0664  33.4204 0075316  34.6727  25.8434 13.96454414962472"}}, "geometry": {"type": "Point", "coordinates": [-152.67885219546775, -36.13264323339157]}}, {"type": "Feature", "properties": {"norad_id": 30183, "name": "FENGYUN 1C DEB", "group": "fengyun-1c-debris", "lat": 19.503348386804586, "lon": -151.56731000874757, "alt_km": 854.8526982452113, "timestamp": "2025-12-08T23:34:04.243953+00:00", "meta": {"OBJECT_NAME": "FENGYUN 1C DEB", "OBJECT_ID": "1999-025UQ", "EPOCH": "2025-12-08T14:55:40.418976", "MEAN_MOTION": 14.12650867, "ECCENTRICITY": 0.00258152, "INCLINATION": 98.789, "RA_OF_ASC_NODE": 24.9384, "ARG_OF_PERICENTER": 265.1933, "MEAN_ANOMALY": 225.4784, "EPHEMERIS_TYPE": 0, "CLASSIFICATION_TYPE": "U", "NORAD_CAT_ID": 30183, "ELEMENT_SET_NO": 999, "REV_AT_EPOCH": 97085, "BSTAR": 0.000967504, "MEAN_MOTION_DOT": 1.755e-05, "MEAN_MOTION_DDOT": 0}, "tle": {"line1": "1 30183U 99025UQ  25342.62199559  .00001755  00000+0  96750-3 0  9999", "line2": "2 30183  98.7890  24.9384 0025815 265.1933 225.4784 14.12650867970859"}}, "geometry": {"type": "Point", "coordinates": [-151.56731000874757, 19.503348386804586]}}, {"type": "Feature", "properties": {"norad_id": 30191, "name": "FENGYUN 1C DEB", "group": "fengyun-1c-debris", "lat": -75.21580381172652, "lon": 89.65509408843307, "alt_km": 575.4878245288255, "timestamp": "2025-12-08T23:34:04.243963+00:00", "meta": {"OBJECT_NAME": "FENGYUN 1C DEB", "OBJECT_ID": "1999-025UY", "EPOCH": "2025-12-08T11:00:58.934880", "MEAN_MOTION": 14.77886632, "ECCENTRICITY": 0.00972301, "INCLINATION": 98.7758, "RA_OF_ASC_NODE": 53.2592, "ARG_OF_PERICENTER": 277.1219, "MEAN_ANOMALY": 103.912, "EPHEMERIS_TYPE": 0, "CLASSIFICATION_TYPE": "U", "NORAD_CAT_ID": 30191, "ELEMENT_SET_NO": 999, "REV_AT_EPOCH": 212, "BSTAR": 0.0014888548, "MEAN_MOTION_DOT": 0.00011541, "MEAN_MOTION_DDOT": 0}, "tle": {"line1": "1 30191U 99025UY  25342.45901545  .00011541  00000+0  14889-2 0  9991", "line2": "2 30191  98.7758  53.2592 0097230 277.1219 103.9120 14.77886632  2129"}}, "geometry": {"type": "Point", "coordinates": [89.65509408843307, -75.21580381172652]}}, {"type": "Feature", "properties": {"norad_id": 30193, "name": "FENGYUN 1C DEB", "group": "fengyun-1c-debris", "lat": 25.328733025320606, "lon": -113.13191924526703, "alt_km": 763.5955718521473, "timestamp": "2025-12-08T23:34:04.243974+00:00", "meta": {"OBJECT_NAME": "FENGYUN 1C DEB", "OBJECT_ID": "1999-025VA", "EPOCH": "2025-12-08T15:29:10.264416", "MEAN_MOTION": 14.49087344, "ECCENTRICITY": 0.01070301, "INCLINATION": 98.756, "RA_OF_ASC_NODE": 250.7021, "ARG_OF_PERICENTER": 145.3683, "MEAN_ANOMALY": 285.8233, "EPHEMERIS_TYPE": 0, "CLASSIFICATION_TYPE": "U", "NORAD_CAT_ID": 30193, "ELEMENT_SET_NO": 999, "REV_AT_EPOCH": 99107, "BSTAR": 0.0011326203, "MEAN_MOTION_DOT": 4.579e-05, "MEAN_MOTION_DDOT": 0}, "tle": {"line1": "1 30193U 99025VA  25342.64525769  .00004579  00000+0  11326-2 0  9990", "line2": "2 30193  98.7560 250.7021 0107030 145.3683 285.8233 14.49087344991072"}}, "geometry": {"type": "Point", "coordinates": [-113.13191924526703, 25.328733025320606]}}]}